SL-16 R/B               
1 22566U 93016B   26024.18253247  .00000390  00000+0  22446-3 0  9998
2 22566  71.0087 308.6620 0009242  19.5481 340.5995 14.15297075695877
COSMOS 2242             
1 22626U 93024A   26024.50409036  .00003644  00000+0  31889-3 0  9995
2 22626  82.5207 308.9699 0018134  93.0299 267.2999 14.96337327773788
SL-16 R/B               
1 22803U 93059B   26024.43411019 -.00000113  00000+0 -31923-4 0  9996
2 22803  70.9907 104.4570 0019577 276.7356  83.1539 14.17223820673268
ARIANE 40 R/B           
1 22830U 93061H   26024.14636250  .00000557  00000+0  22001-3 0  9999
2 22830  98.5009  93.8922 0011602  60.0122 300.2213 14.32834701687726
COSMOS 2278             
1 23087U 94023A   26024.39512059 -.00000020  00000+0  14425-4 0  9998
2 23087  71.0534 267.7705 0006330  98.0024 262.1817 14.14367069638545
SL-16 R/B               
1 23088U 94023B   26024.46168710 -.00000069  00000+0 -10884-4 0  9997
2 23088  71.0001 163.7692 0004062 326.8597  33.2271 14.15007030639836
SL-16 R/B               
1 23343U 94074B   26024.49956836  .00000925  00000+0  13085-3 0  9998
2 23343  97.7164  57.0966 0006903  17.8653  88.7413 14.79349685680711
SL-16 R/B               
1 23405U 94077B   26024.46057241 -.00000052  00000+0 -21122-5 0  9995
2 23405  70.9829  85.5414 0004839 251.6997 108.3600 14.15558921609971
ARIANE 40+ R/B          
1 23561U 95021B   26024.46835340  .00000632  00000+0  21577-3 0  9996
2 23561  98.4586  96.5300 0005609 274.3960  96.2726 14.39736127612883
SL-16 R/B               
1 23705U 95058B   26024.39470092 -.00000185  00000+0 -70372-4 0  9990
2 23705  71.0206 273.2526 0013151 197.4620 162.6052 14.15488809561587
SL-16 R/B               
1 24298U 96051B   26023.98184682  .00000106  00000+0  84291-4 0  9999
2 24298  70.7580 269.8718 0018534 209.0029 151.0062 14.12403221515330
ORBVIEW 2 (SEASTAR)     
1 24883U 97037A   26024.43532779  .00000656  00000+0  24451-3 0  9990
2 24883  98.8493 187.5937 0002305 166.2633 193.8615 14.35456667502125
