CCSDS_OMM_VERS = 2.0
CREATION_DATE  = 
ORIGINATOR     = 

OBJECT_NAME    = SL-16 R/B
OBJECT_ID      = 1993-016B
CENTER_NAME    = EARTH
REF_FRAME      = TEME
TIME_SYSTEM    = UTC
MEAN_ELEMENT_THEORY = SGP/SGP4

EPOCH          = 2026-01-24T04:22:50.805408
MEAN_MOTION    = 14.15297075
ECCENTRICITY   = .0009242
INCLINATION    = 71.0087
RA_OF_ASC_NODE = 308.6620
ARG_OF_PERICENTER = 19.5481
MEAN_ANOMALY   = 340.5995

EPHEMERIS_TYPE = 0
CLASSIFICATION_TYPE = U
NORAD_CAT_ID   = 22566
ELEMENT_SET_NO = 999
REV_AT_EPOCH   = 69587
BSTAR          = .22446E-3
MEAN_MOTION_DOT = .39E-5
MEAN_MOTION_DDOT = 0

CCSDS_OMM_VERS = 2.0
CREATION_DATE  = 
ORIGINATOR     = 

OBJECT_NAME    = COSMOS 2242
OBJECT_ID      = 1993-024A
CENTER_NAME    = EARTH
REF_FRAME      = TEME
TIME_SYSTEM    = UTC
MEAN_ELEMENT_THEORY = SGP/SGP4

EPOCH          = 2026-01-24T12:05:53.407104
MEAN_MOTION    = 14.96337327
ECCENTRICITY   = .0018134
INCLINATION    = 82.5207
RA_OF_ASC_NODE = 308.9699
ARG_OF_PERICENTER = 93.0299
MEAN_ANOMALY   = 267.2999

EPHEMERIS_TYPE = 0
CLASSIFICATION_TYPE = U
NORAD_CAT_ID   = 22626
ELEMENT_SET_NO = 999
REV_AT_EPOCH   = 77378
BSTAR          = .31889E-3
MEAN_MOTION_DOT = .3644E-4
MEAN_MOTION_DDOT = 0

CCSDS_OMM_VERS = 2.0
CREATION_DATE  = 
ORIGINATOR     = 

OBJECT_NAME    = SL-16 R/B
OBJECT_ID      = 1993-059B
CENTER_NAME    = EARTH
REF_FRAME      = TEME
TIME_SYSTEM    = UTC
MEAN_ELEMENT_THEORY = SGP/SGP4

EPOCH          = 2026-01-24T10:25:07.120416
MEAN_MOTION    = 14.17223820
ECCENTRICITY   = .0019577
INCLINATION    = 70.9907
RA_OF_ASC_NODE = 104.4570
ARG_OF_PERICENTER = 276.7356
MEAN_ANOMALY   = 83.1539

EPHEMERIS_TYPE = 0
CLASSIFICATION_TYPE = U
NORAD_CAT_ID   = 22803
ELEMENT_SET_NO = 999
REV_AT_EPOCH   = 67326
BSTAR          = -.31923E-4
MEAN_MOTION_DOT = -.113E-5
MEAN_MOTION_DDOT = 0

CCSDS_OMM_VERS = 2.0
CREATION_DATE  = 
ORIGINATOR     = 

OBJECT_NAME    = ARIANE 40 R/B
OBJECT_ID      = 1993-061H
CENTER_NAME    = EARTH
REF_FRAME      = TEME
TIME_SYSTEM    = UTC
MEAN_ELEMENT_THEORY = SGP/SGP4

EPOCH          = 2026-01-24T03:30:45.720000
MEAN_MOTION    = 14.32834701
ECCENTRICITY   = .00116024
INCLINATION    = 98.5009
RA_OF_ASC_NODE = 93.8922
ARG_OF_PERICENTER = 60.0122
MEAN_ANOMALY   = 300.2213

EPHEMERIS_TYPE = 0
CLASSIFICATION_TYPE = U
NORAD_CAT_ID   = 22830
ELEMENT_SET_NO = 999
REV_AT_EPOCH   = 68772
BSTAR          = .22000881E-3
MEAN_MOTION_DOT = .557E-5
MEAN_MOTION_DDOT = 0

CCSDS_OMM_VERS = 2.0
CREATION_DATE  = 
ORIGINATOR     = 

OBJECT_NAME    = COSMOS 2278
OBJECT_ID      = 1994-023A
CENTER_NAME    = EARTH
REF_FRAME      = TEME
TIME_SYSTEM    = UTC
MEAN_ELEMENT_THEORY = SGP/SGP4

EPOCH          = 2026-01-24T09:28:58.418976
MEAN_MOTION    = 14.14367069
ECCENTRICITY   = .000633
INCLINATION    = 71.0534
RA_OF_ASC_NODE = 267.7705
ARG_OF_PERICENTER = 98.0024
MEAN_ANOMALY   = 262.1817

EPHEMERIS_TYPE = 0
CLASSIFICATION_TYPE = U
NORAD_CAT_ID   = 23087
ELEMENT_SET_NO = 999
REV_AT_EPOCH   = 63854
BSTAR          = .14425E-4
MEAN_MOTION_DOT = -.2E-6
MEAN_MOTION_DDOT = 0

CCSDS_OMM_VERS = 2.0
CREATION_DATE  = 
ORIGINATOR     = 

OBJECT_NAME    = SL-16 R/B
OBJECT_ID      = 1994-023B
CENTER_NAME    = EARTH
REF_FRAME      = TEME
TIME_SYSTEM    = UTC
MEAN_ELEMENT_THEORY = SGP/SGP4

EPOCH          = 2026-01-24T11:04:49.765440
MEAN_MOTION    = 14.15007030
ECCENTRICITY   = .0004062
INCLINATION    = 71.0001
RA_OF_ASC_NODE = 163.7692
ARG_OF_PERICENTER = 326.8597
MEAN_ANOMALY   = 33.2271

EPHEMERIS_TYPE = 0
CLASSIFICATION_TYPE = U
NORAD_CAT_ID   = 23088
ELEMENT_SET_NO = 999
REV_AT_EPOCH   = 63983
BSTAR          = -.10884E-4
MEAN_MOTION_DOT = -.69E-6
MEAN_MOTION_DDOT = 0

CCSDS_OMM_VERS = 2.0
CREATION_DATE  = 
ORIGINATOR     = 

OBJECT_NAME    = SL-16 R/B
OBJECT_ID      = 1994-074B
CENTER_NAME    = EARTH
REF_FRAME      = TEME
TIME_SYSTEM    = UTC
MEAN_ELEMENT_THEORY = SGP/SGP4

EPOCH          = 2026-01-24T11:59:22.706304
MEAN_MOTION    = 14.79349685
ECCENTRICITY   = .0006903
INCLINATION    = 97.7164
RA_OF_ASC_NODE = 57.0966
ARG_OF_PERICENTER = 17.8653
MEAN_ANOMALY   = 88.7413

EPHEMERIS_TYPE = 0
CLASSIFICATION_TYPE = U
NORAD_CAT_ID   = 23343
ELEMENT_SET_NO = 999
REV_AT_EPOCH   = 68071
BSTAR          = .13085E-3
MEAN_MOTION_DOT = .925E-5
MEAN_MOTION_DDOT = 0

CCSDS_OMM_VERS = 2.0
CREATION_DATE  = 
ORIGINATOR     = 

OBJECT_NAME    = SL-16 R/B
OBJECT_ID      = 1994-077B
CENTER_NAME    = EARTH
REF_FRAME      = TEME
TIME_SYSTEM    = UTC
MEAN_ELEMENT_THEORY = SGP/SGP4

EPOCH          = 2026-01-24T11:03:13.456224
MEAN_MOTION    = 14.15558921
ECCENTRICITY   = .0004839
INCLINATION    = 70.9829
RA_OF_ASC_NODE = 85.5414
ARG_OF_PERICENTER = 251.6997
MEAN_ANOMALY   = 108.3600

EPHEMERIS_TYPE = 0
CLASSIFICATION_TYPE = U
NORAD_CAT_ID   = 23405
ELEMENT_SET_NO = 999
REV_AT_EPOCH   = 60997
BSTAR          = -.21122E-5
MEAN_MOTION_DOT = -.52E-6
MEAN_MOTION_DDOT = 0

CCSDS_OMM_VERS = 2.0
CREATION_DATE  = 
ORIGINATOR     = 

OBJECT_NAME    = ARIANE 40+ R/B
OBJECT_ID      = 1995-021B
CENTER_NAME    = EARTH
REF_FRAME      = TEME
TIME_SYSTEM    = UTC
MEAN_ELEMENT_THEORY = SGP/SGP4

EPOCH          = 2026-01-24T11:14:25.733760
MEAN_MOTION    = 14.39736127
ECCENTRICITY   = .0005609
INCLINATION    = 98.4586
RA_OF_ASC_NODE = 96.5300
ARG_OF_PERICENTER = 274.3960
MEAN_ANOMALY   = 96.2726

EPHEMERIS_TYPE = 0
CLASSIFICATION_TYPE = U
NORAD_CAT_ID   = 23561
ELEMENT_SET_NO = 999
REV_AT_EPOCH   = 61288
BSTAR          = .21577E-3
MEAN_MOTION_DOT = .632E-5
MEAN_MOTION_DDOT = 0

CCSDS_OMM_VERS = 2.0
CREATION_DATE  = 
ORIGINATOR     = 

OBJECT_NAME    = SL-16 R/B
OBJECT_ID      = 1995-058B
CENTER_NAME    = EARTH
REF_FRAME      = TEME
TIME_SYSTEM    = UTC
MEAN_ELEMENT_THEORY = SGP/SGP4

EPOCH          = 2026-01-24T09:28:22.159488
MEAN_MOTION    = 14.15488809
ECCENTRICITY   = .0013151
INCLINATION    = 71.0206
RA_OF_ASC_NODE = 273.2526
ARG_OF_PERICENTER = 197.4620
MEAN_ANOMALY   = 162.6052

EPHEMERIS_TYPE = 0
CLASSIFICATION_TYPE = U
NORAD_CAT_ID   = 23705
ELEMENT_SET_NO = 999
REV_AT_EPOCH   = 56158
BSTAR          = -.70372E-4
MEAN_MOTION_DOT = -.185E-5
MEAN_MOTION_DDOT = 0

CCSDS_OMM_VERS = 2.0
CREATION_DATE  = 
ORIGINATOR     = 

OBJECT_NAME    = SL-16 R/B
OBJECT_ID      = 1996-051B
CENTER_NAME    = EARTH
REF_FRAME      = TEME
TIME_SYSTEM    = UTC
MEAN_ELEMENT_THEORY = SGP/SGP4

EPOCH          = 2026-01-23T23:33:51.565248
MEAN_MOTION    = 14.12403221
ECCENTRICITY   = .0018534
INCLINATION    = 70.7580
RA_OF_ASC_NODE = 269.8718
ARG_OF_PERICENTER = 209.0029
MEAN_ANOMALY   = 151.0062

EPHEMERIS_TYPE = 0
CLASSIFICATION_TYPE = U
NORAD_CAT_ID   = 24298
ELEMENT_SET_NO = 999
REV_AT_EPOCH   = 51533
BSTAR          = .84291E-4
MEAN_MOTION_DOT = .106E-5
MEAN_MOTION_DDOT = 0

CCSDS_OMM_VERS = 2.0
CREATION_DATE  = 
ORIGINATOR     = 

OBJECT_NAME    = ORBVIEW 2 (SEASTAR)
OBJECT_ID      = 1997-037A
CENTER_NAME    = EARTH
REF_FRAME      = TEME
TIME_SYSTEM    = UTC
MEAN_ELEMENT_THEORY = SGP/SGP4

EPOCH          = 2026-01-24T10:26:52.321056
MEAN_MOTION    = 14.35456667
ECCENTRICITY   = .0002305
INCLINATION    = 98.8493
RA_OF_ASC_NODE = 187.5937
ARG_OF_PERICENTER = 166.2633
MEAN_ANOMALY   = 193.8615

EPHEMERIS_TYPE = 0
CLASSIFICATION_TYPE = U
NORAD_CAT_ID   = 24883
ELEMENT_SET_NO = 999
REV_AT_EPOCH   = 50212
BSTAR          = .24451E-3
MEAN_MOTION_DOT = .656E-5
MEAN_MOTION_DDOT = 0

